[
  {
    "OBJECT_NAME": "STARLINK-33679",
    "OBJECT_ID": "25070A",
    "EPOCH": "2025-11-11T03:31:44.027904",
    "MEAN_MOTION": 15.27607739,
    "ECCENTRICITY": 9.73e-05,
    "INCLINATION": 43.0006,
    "RA_OF_ASC_NODE": 209.5813,
    "ARG_OF_PERICENTER": 268.4282,
    "MEAN_ANOMALY": 91.6458,
    "EPHEMERIS_TYPE": 0,
    "CLASSIFICATION_TYPE": "U",
    "NORAD_CAT_ID": 63460,
    "ELEMENT_SET_NO": 999,
    "REV_AT_EPOCH": 3484,
    "BSTAR": 0.0006284800000000001,
    "MEAN_MOTION_DOT": 0.00017087,
    "MEAN_MOTION_DDOT": 0.0,
    "TLE_LINE1": "1 63460U 25070A   25315.14703736  .00017087  00000+0  62848-3 0  9993",
    "TLE_LINE2": "2 63460  43.0006 209.5813 0000973 268.4282  91.6458 15.27607739 34842",
    "COMMENT": "Grouped by shell and plane from TLE"
  },
  {
    "OBJECT_NAME": "STARLINK-33706",
    "OBJECT_ID": "25070B",
    "EPOCH": "2025-11-11T02:03:06.742080",
    "MEAN_MOTION": 15.27627867,
    "ECCENTRICITY": 9.62e-05,
    "INCLINATION": 42.9996,
    "RA_OF_ASC_NODE": 209.9497,
    "ARG_OF_PERICENTER": 261.1356,
    "MEAN_ANOMALY": 98.9387,
    "EPHEMERIS_TYPE": 0,
    "CLASSIFICATION_TYPE": "U",
    "NORAD_CAT_ID": 63461,
    "ELEMENT_SET_NO": 999,
    "REV_AT_EPOCH": 3483,
    "BSTAR": 0.0010580000000000001,
    "MEAN_MOTION_DOT": 0.0002901,
    "MEAN_MOTION_DDOT": 0.0,
    "TLE_LINE1": "1 63461U 25070B   25315.08549470  .00029010  00000+0  10580-2 0  9994",
    "TLE_LINE2": "2 63461  42.9996 209.9497 0000962 261.1356  98.9387 15.27627867 34835",
    "COMMENT": "Grouped by shell and plane from TLE"
  },
  {
    "OBJECT_NAME": "STARLINK-33691",
    "OBJECT_ID": "25070C",
    "EPOCH": "2025-11-11T02:23:14.318592",
    "MEAN_MOTION": 15.27608038,
    "ECCENTRICITY": 0.0001831,
    "INCLINATION": 42.9999,
    "RA_OF_ASC_NODE": 209.1963,
    "ARG_OF_PERICENTER": 268.454,
    "MEAN_ANOMALY": 91.6102,
    "EPHEMERIS_TYPE": 0,
    "CLASSIFICATION_TYPE": "U",
    "NORAD_CAT_ID": 63462,
    "ELEMENT_SET_NO": 999,
    "REV_AT_EPOCH": 3479,
    "BSTAR": 0.0015702,
    "MEAN_MOTION_DOT": 0.00043237,
    "MEAN_MOTION_DDOT": 0.0,
    "TLE_LINE1": "1 63462U 25070C   25315.09947128  .00043237  00000+0  15702-2 0  9996",
    "TLE_LINE2": "2 63462  42.9999 209.1963 0001831 268.4540  91.6102 15.27608038 34799",
    "COMMENT": "Grouped by shell and plane from TLE"
  },
  {
    "OBJECT_NAME": "STARLINK-33696",
    "OBJECT_ID": "25070D",
    "EPOCH": "2025-11-11T01:26:06.315648",
    "MEAN_MOTION": 15.27616164,
    "ECCENTRICITY": 0.0001188,
    "INCLINATION": 42.998,
    "RA_OF_ASC_NODE": 209.7519,
    "ARG_OF_PERICENTER": 278.1178,
    "MEAN_ANOMALY": 81.9539,
    "EPHEMERIS_TYPE": 0,
    "CLASSIFICATION_TYPE": "U",
    "NORAD_CAT_ID": 63463,
    "ELEMENT_SET_NO": 999,
    "REV_AT_EPOCH": 3483,
    "BSTAR": 0.0010924,
    "MEAN_MOTION_DOT": 0.00029954,
    "MEAN_MOTION_DDOT": 0.0,
    "TLE_LINE1": "1 63463U 25070D   25315.05979532  .00029954  00000+0  10924-2 0  9998",
    "TLE_LINE2": "2 63463  42.9980 209.7519 0001188 278.1178  81.9539 15.27616164 34833",
    "COMMENT": "Grouped by shell and plane from TLE"
  },
  {
    "OBJECT_NAME": "STARLINK-33701",
    "OBJECT_ID": "25070E",
    "EPOCH": "2025-11-11T02:08:39.791616",
    "MEAN_MOTION": 15.27641098,
    "ECCENTRICITY": 9.86e-05,
    "INCLINATION": 42.9986,
    "RA_OF_ASC_NODE": 209.978,
    "ARG_OF_PERICENTER": 248.233,
    "MEAN_ANOMALY": 111.8417,
    "EPHEMERIS_TYPE": 0,
    "CLASSIFICATION_TYPE": "U",
    "NORAD_CAT_ID": 63464,
    "ELEMENT_SET_NO": 999,
    "REV_AT_EPOCH": 3483,
    "BSTAR": 0.0011037,
    "MEAN_MOTION_DOT": 0.00030291,
    "MEAN_MOTION_DDOT": 0.0,
    "TLE_LINE1": "1 63464U 25070E   25315.08934944  .00030291  00000+0  11037-2 0  9992",
    "TLE_LINE2": "2 63464  42.9986 209.9780 0000986 248.2330 111.8417 15.27641098 34837",
    "COMMENT": "Grouped by shell and plane from TLE"
  },
  {
    "OBJECT_NAME": "STARLINK-33685",
    "OBJECT_ID": "25070F",
    "EPOCH": "2025-11-11T03:16:54.507936",
    "MEAN_MOTION": 15.27635148,
    "ECCENTRICITY": 0.0001709,
    "INCLINATION": 42.9996,
    "RA_OF_ASC_NODE": 209.4663,
    "ARG_OF_PERICENTER": 261.8154,
    "MEAN_ANOMALY": 98.2504,
    "EPHEMERIS_TYPE": 0,
    "CLASSIFICATION_TYPE": "U",
    "NORAD_CAT_ID": 63465,
    "ELEMENT_SET_NO": 999,
    "REV_AT_EPOCH": 3484,
    "BSTAR": 0.0017001,
    "MEAN_MOTION_DOT": 0.000469,
    "MEAN_MOTION_DDOT": 0.0,
    "TLE_LINE1": "1 63465U 25070F   25315.13674199  .00046900  00000+0  17001-2 0  9993",
    "TLE_LINE2": "2 63465  42.9996 209.4663 0001709 261.8154  98.2504 15.27635148 34848",
    "COMMENT": "Grouped by shell and plane from TLE"
  },
  {
    "OBJECT_NAME": "STARLINK-33654",
    "OBJECT_ID": "25070G",
    "EPOCH": "2025-11-11T03:02:06.635616",
    "MEAN_MOTION": 15.27617609,
    "ECCENTRICITY": 9.54e-05,
    "INCLINATION": 42.997,
    "RA_OF_ASC_NODE": 209.3883,
    "ARG_OF_PERICENTER": 273.2759,
    "MEAN_ANOMALY": 86.7984,
    "EPHEMERIS_TYPE": 0,
    "CLASSIFICATION_TYPE": "U",
    "NORAD_CAT_ID": 63466,
    "ELEMENT_SET_NO": 999,
    "REV_AT_EPOCH": 3484,
    "BSTAR": 0.00081293,
    "MEAN_MOTION_DOT": 0.00022201,
    "MEAN_MOTION_DDOT": 0.0,
    "TLE_LINE1": "1 63466U 25070G   25315.12646569  .00022201  00000+0  81293-3 0  9996",
    "TLE_LINE2": "2 63466  42.9970 209.3883 0000954 273.2759  86.7984 15.27617609 34849",
    "COMMENT": "Grouped by shell and plane from TLE"
  },
  {
    "OBJECT_NAME": "STARLINK-33697",
    "OBJECT_ID": "25070H",
    "EPOCH": "2025-11-11T03:05:48.921216",
    "MEAN_MOTION": 15.27629506,
    "ECCENTRICITY": 1.19e-05,
    "INCLINATION": 42.9963,
    "RA_OF_ASC_NODE": 209.4237,
    "ARG_OF_PERICENTER": 8.8231,
    "MEAN_ANOMALY": 351.2623,
    "EPHEMERIS_TYPE": 0,
    "CLASSIFICATION_TYPE": "U",
    "NORAD_CAT_ID": 63467,
    "ELEMENT_SET_NO": 999,
    "REV_AT_EPOCH": 3484,
    "BSTAR": 0.0011214,
    "MEAN_MOTION_DOT": 0.00030773,
    "MEAN_MOTION_DDOT": 0.0,
    "TLE_LINE1": "1 63467U 25070H   25315.12903844  .00030773  00000+0  11214-2 0  9997",
    "TLE_LINE2": "2 63467  42.9963 209.4237 0000119   8.8231 351.2623 15.27629506 34845",
    "COMMENT": "Grouped by shell and plane from TLE"
  },
  {
    "OBJECT_NAME": "STARLINK-33720",
    "OBJECT_ID": "25070J",
    "EPOCH": "2025-11-11T01:33:30.345984",
    "MEAN_MOTION": 15.27619413,
    "ECCENTRICITY": 0.000163,
    "INCLINATION": 42.995,
    "RA_OF_ASC_NODE": 209.7889,
    "ARG_OF_PERICENTER": 262.8628,
    "MEAN_ANOMALY": 97.2038,
    "EPHEMERIS_TYPE": 0,
    "CLASSIFICATION_TYPE": "U",
    "NORAD_CAT_ID": 63468,
    "ELEMENT_SET_NO": 999,
    "REV_AT_EPOCH": 3483,
    "BSTAR": 0.0012544,
    "MEAN_MOTION_DOT": 0.00034459,
    "MEAN_MOTION_DDOT": 0.0,
    "TLE_LINE1": "1 63468U 25070J   25315.06493456  .00034459  00000+0  12544-2 0  9996",
    "TLE_LINE2": "2 63468  42.9950 209.7889 0001630 262.8628  97.2038 15.27619413 34831",
    "COMMENT": "Grouped by shell and plane from TLE"
  },
  {
    "OBJECT_NAME": "STARLINK-33587",
    "OBJECT_ID": "25070K",
    "EPOCH": "2025-11-11T02:45:26.296416",
    "MEAN_MOTION": 15.27579258,
    "ECCENTRICITY": 0.0002231,
    "INCLINATION": 43.0018,
    "RA_OF_ASC_NODE": 209.3034,
    "ARG_OF_PERICENTER": 253.4562,
    "MEAN_ANOMALY": 106.6045,
    "EPHEMERIS_TYPE": 0,
    "CLASSIFICATION_TYPE": "U",
    "NORAD_CAT_ID": 63469,
    "ELEMENT_SET_NO": 999,
    "REV_AT_EPOCH": 3484,
    "BSTAR": 0.0011036,
    "MEAN_MOTION_DOT": 0.00030231,
    "MEAN_MOTION_DDOT": 0.0,
    "TLE_LINE1": "1 63469U 25070K   25315.11488769  .00030231  00000+0  11036-2 0  9993",
    "TLE_LINE2": "2 63469  43.0018 209.3034 0002231 253.4562 106.6045 15.27579258 34844",
    "COMMENT": "Grouped by shell and plane from TLE"
  },
  {
    "OBJECT_NAME": "STARLINK-33744",
    "OBJECT_ID": "25070M",
    "EPOCH": "2025-11-11T01:52:00.439104",
    "MEAN_MOTION": 15.27610787,
    "ECCENTRICITY": 0.0001087,
    "INCLINATION": 43.0013,
    "RA_OF_ASC_NODE": 209.8814,
    "ARG_OF_PERICENTER": 266.0594,
    "MEAN_ANOMALY": 94.0133,
    "EPHEMERIS_TYPE": 0,
    "CLASSIFICATION_TYPE": "U",
    "NORAD_CAT_ID": 63471,
    "ELEMENT_SET_NO": 999,
    "REV_AT_EPOCH": 3483,
    "BSTAR": 0.00079347,
    "MEAN_MOTION_DOT": 0.00021657,
    "MEAN_MOTION_DDOT": 0.0,
    "TLE_LINE1": "1 63471U 25070M   25315.07778286  .00021657  00000+0  79347-3 0  9999",
    "TLE_LINE2": "2 63471  43.0013 209.8814 0001087 266.0594  94.0133 15.27610787 34836",
    "COMMENT": "Grouped by shell and plane from TLE"
  },
  {
    "OBJECT_NAME": "STARLINK-33766",
    "OBJECT_ID": "25070N",
    "EPOCH": "2025-11-11T02:04:57.419616",
    "MEAN_MOTION": 15.27624332,
    "ECCENTRICITY": 0.0001899,
    "INCLINATION": 43.0006,
    "RA_OF_ASC_NODE": 209.9564,
    "ARG_OF_PERICENTER": 269.6647,
    "MEAN_ANOMALY": 90.3987,
    "EPHEMERIS_TYPE": 0,
    "CLASSIFICATION_TYPE": "U",
    "NORAD_CAT_ID": 63472,
    "ELEMENT_SET_NO": 999,
    "REV_AT_EPOCH": 3483,
    "BSTAR": 0.0010582999999999999,
    "MEAN_MOTION_DOT": 0.00029014,
    "MEAN_MOTION_DDOT": 0.0,
    "TLE_LINE1": "1 63472U 25070N   25315.08677569  .00029014  00000+0  10583-2 0  9994",
    "TLE_LINE2": "2 63472  43.0006 209.9564 0001899 269.6647  90.3987 15.27624332 34838",
    "COMMENT": "Grouped by shell and plane from TLE"
  },
  {
    "OBJECT_NAME": "STARLINK-33765",
    "OBJECT_ID": "25070P",
    "EPOCH": "2025-11-11T01:39:03.066336",
    "MEAN_MOTION": 15.27580669,
    "ECCENTRICITY": 0.0001177,
    "INCLINATION": 42.9965,
    "RA_OF_ASC_NODE": 209.8136,
    "ARG_OF_PERICENTER": 273.4923,
    "MEAN_ANOMALY": 86.5794,
    "EPHEMERIS_TYPE": 0,
    "CLASSIFICATION_TYPE": "U",
    "NORAD_CAT_ID": 63473,
    "ELEMENT_SET_NO": 999,
    "REV_AT_EPOCH": 3483,
    "BSTAR": 0.0010951,
    "MEAN_MOTION_DOT": 0.00029997,
    "MEAN_MOTION_DDOT": 0.0,
    "TLE_LINE1": "1 63473U 25070P   25315.06878549  .00029997  00000+0  10951-2 0  9993",
    "TLE_LINE2": "2 63473  42.9965 209.8136 0001177 273.4923  86.5794 15.27580669 34831",
    "COMMENT": "Grouped by shell and plane from TLE"
  }
]